start=new Date('2022-07-22T00:00:00.000Z').valueOf();
sats=[{"MEAN_ELEMENT_THEORY":"SGP4","TLE_LINE1":"1 46538U 20070G   22202.86355444  .00000146  00000-0  28698-4 0  9990","GP_ID":"208602951","NORAD_CAT_ID":"46538","ELEMENT_SET_NO":"999","TIME_SYSTEM":"UTC","ECCENTRICITY":"0.00014280","EPHEMERIS_TYPE":"0","COUNTRY_CODE":"US","OBJECT_ID":"2020-070G","CLASSIFICATION_TYPE":"U","SITE":"AFETR","EPOCH":"2022-07-21T20:43:31.103616","BSTAR":"0.00002869800000","PERIOD":"95.592","APOAPSIS":"548.204","PERIAPSIS":"546.226","MEAN_ANOMALY":"285.3353","REV_AT_EPOCH":"9951","ARG_OF_PERICENTER":"74.7794","TLE_LINE2":"2 46538  53.0562  12.9680 0001428  74.7794 285.3353 15.06399435 99516","FILE":"3519265","RCS_SIZE":"LARGE","INCLINATION":"53.0562","SEMIMAJOR_AXIS":"6925.350","RA_OF_ASC_NODE":"12.9680","REF_FRAME":"TEME","OBJECT_TYPE":"PAYLOAD","OBJECT_NAME":"STARLINK-1678","MEAN_MOTION_DDOT":"0.0000000000000","CENTER_NAME":"EARTH","DECAY_DATE":null,"LAUNCH_DATE":"2020-10-06","MEAN_MOTION":"15.06399435","MEAN_MOTION_DOT":"0.00000146"},{"SEMIMAJOR_AXIS":"6925.371","RA_OF_ASC_NODE":"353.0739","REF_FRAME":"TEME","CENTER_NAME":"EARTH","DECAY_DATE":null,"MEAN_MOTION":"15.06392633","LAUNCH_DATE":"2020-10-06","MEAN_MOTION_DOT":"-0.00002004","OBJECT_TYPE":"PAYLOAD","OBJECT_NAME":"STARLINK-1687","MEAN_MOTION_DDOT":"0.0000000000000","ARG_OF_PERICENTER":"85.5080","REV_AT_EPOCH":"9979","RCS_SIZE":"LARGE","INCLINATION":"53.0562","TLE_LINE2":"2 46541  53.0562 353.0739 0001383  85.5080 274.6067 15.06392633 99798","FILE":"3519265","EPHEMERIS_TYPE":"0","COUNTRY_CODE":"US","OBJECT_ID":"2020-070K","CLASSIFICATION_TYPE":"U","PERIOD":"95.593","APOAPSIS":"548.194","PERIAPSIS":"546.278","MEAN_ANOMALY":"274.6067","SITE":"AFETR","BSTAR":"-0.00011569000000","EPOCH":"2022-07-21T20:14:19.480992","TLE_LINE1":"1 46541U 20070K   22202.84328103 -.00002004  00000-0 -11569-3 0  9999","MEAN_ELEMENT_THEORY":"SGP4","GP_ID":"208601712","NORAD_CAT_ID":"46541","ELEMENT_SET_NO":"999","ECCENTRICITY":"0.00013830","TIME_SYSTEM":"UTC"},{"REV_AT_EPOCH":"9951","ARG_OF_PERICENTER":"75.6295","FILE":"3519265","TLE_LINE2":"2 46542  53.0561  13.0573 0001420  75.6295 284.4852 15.06392744 99511","INCLINATION":"53.0561","RCS_SIZE":"LARGE","SEMIMAJOR_AXIS":"6925.371","RA_OF_ASC_NODE":"13.0573","REF_FRAME":"TEME","OBJECT_NAME":"STARLINK-1692","MEAN_MOTION_DDOT":"0.0000000000000","OBJECT_TYPE":"PAYLOAD","LAUNCH_DATE":"2020-10-06","MEAN_MOTION":"15.06392744","MEAN_MOTION_DOT":"0.00000370","CENTER_NAME":"EARTH","DECAY_DATE":null,"MEAN_ELEMENT_THEORY":"SGP4","TLE_LINE1":"1 46542U 20070L   22202.84515170  .00000370  00000-0  43774-4 0  9998","ECCENTRICITY":"0.00014200","ELEMENT_SET_NO":"999","NORAD_CAT_ID":"46542","TIME_SYSTEM":"UTC","GP_ID":"208602462","COUNTRY_CODE":"US","CLASSIFICATION_TYPE":"U","OBJECT_ID":"2020-070L","EPHEMERIS_TYPE":"0","BSTAR":"0.00004377400000","EPOCH":"2022-07-21T20:17:01.106880","SITE":"AFETR","PERIAPSIS":"546.252","MEAN_ANOMALY":"284.4852","PERIOD":"95.593","APOAPSIS":"548.219"},{"OBJECT_TYPE":"PAYLOAD","MEAN_MOTION_DDOT":"0.0000000000000","OBJECT_NAME":"STARLINK-1693","DECAY_DATE":null,"CENTER_NAME":"EARTH","MEAN_MOTION_DOT":"-0.00002642","LAUNCH_DATE":"2020-10-06","MEAN_MOTION":"15.06383033","REF_FRAME":"TEME","RA_OF_ASC_NODE":"13.1185","SEMIMAJOR_AXIS":"6925.401","TLE_LINE2":"2 46543  53.0574  13.1185 0001421  79.7238 280.3911 15.06383033 99533","FILE":"3519226","RCS_SIZE":"LARGE","INCLINATION":"53.0574","REV_AT_EPOCH":"9953","ARG_OF_PERICENTER":"79.7238","SITE":"AFETR","BSTAR":"-0.00015864000000","EPOCH":"2022-07-21T19:55:46.556544","APOAPSIS":"548.250","PERIOD":"95.593","MEAN_ANOMALY":"280.3911","PERIAPSIS":"546.281","EPHEMERIS_TYPE":"0","OBJECT_ID":"2020-070M","CLASSIFICATION_TYPE":"U","COUNTRY_CODE":"US","GP_ID":"208581488","ECCENTRICITY":"0.00014210","ELEMENT_SET_NO":"999","NORAD_CAT_ID":"46543","TIME_SYSTEM":"UTC","MEAN_ELEMENT_THEORY":"SGP4","TLE_LINE1":"1 46543U 20070M   22202.83039996 -.00002642  00000-0 -15864-3 0  9999"},{"TLE_LINE1":"1 46544U 20070N   22202.82624870 -.00006685  00000-0 -43063-3 0  9993","MEAN_ELEMENT_THEORY":"SGP4","ECCENTRICITY":"0.00014510","ELEMENT_SET_NO":"999","NORAD_CAT_ID":"46544","TIME_SYSTEM":"UTC","GP_ID":"208582005","CLASSIFICATION_TYPE":"U","OBJECT_ID":"2020-070N","COUNTRY_CODE":"US","EPHEMERIS_TYPE":"0","MEAN_ANOMALY":"277.7091","PERIAPSIS":"546.299","APOAPSIS":"548.309","PERIOD":"95.594","EPOCH":"2022-07-21T19:49:47.887680","BSTAR":"-0.00043063000000","SITE":"AFETR","ARG_OF_PERICENTER":"82.4063","REV_AT_EPOCH":"9973","INCLINATION":"53.0543","RCS_SIZE":"LARGE","FILE":"3519227","TLE_LINE2":"2 46544  53.0543 358.1533 0001451  82.4063 277.7091 15.06370431 99738","REF_FRAME":"TEME","RA_OF_ASC_NODE":"358.1533","SEMIMAJOR_AXIS":"6925.439","MEAN_MOTION_DOT":"-0.00006685","MEAN_MOTION":"15.06370431","LAUNCH_DATE":"2020-10-06","DECAY_DATE":null,"CENTER_NAME":"EARTH","MEAN_MOTION_DDOT":"0.0000000000000","OBJECT_NAME":"STARLINK-1694","OBJECT_TYPE":"PAYLOAD"},{"MEAN_ANOMALY":"272.3939","PERIAPSIS":"546.281","APOAPSIS":"548.299","PERIOD":"95.594","EPOCH":"2022-07-21T20:48:50.764608","BSTAR":"-0.00010016000000","SITE":"AFETR","CLASSIFICATION_TYPE":"U","OBJECT_ID":"2020-070P","COUNTRY_CODE":"US","EPHEMERIS_TYPE":"0","ELEMENT_SET_NO":"999","NORAD_CAT_ID":"46545","ECCENTRICITY":"0.00014570","TIME_SYSTEM":"UTC","GP_ID":"208581499","TLE_LINE1":"1 46545U 20070P   22202.86725422 -.00001772  00000-0 -10016-3 0  9997","MEAN_ELEMENT_THEORY":"SGP4","MEAN_MOTION_DOT":"-0.00001772","LAUNCH_DATE":"2020-10-06","MEAN_MOTION":"15.06375130","DECAY_DATE":null,"CENTER_NAME":"EARTH","MEAN_MOTION_DDOT":"0.0000000000000","OBJECT_NAME":"STARLINK-1696","OBJECT_TYPE":"PAYLOAD","REF_FRAME":"TEME","RA_OF_ASC_NODE":"12.9601","SEMIMAJOR_AXIS":"6925.425","INCLINATION":"53.0541","RCS_SIZE":"LARGE","FILE":"3519227","TLE_LINE2":"2 46545  53.0541  12.9601 0001457  87.7217 272.3939 15.06375130 99523","ARG_OF_PERICENTER":"87.7217","REV_AT_EPOCH":"9952"},{"INCLINATION":"53.0559","RCS_SIZE":"LARGE","FILE":"3519227","TLE_LINE2":"2 46546  53.0559  13.0205 0001686  64.4950 295.6214 15.06390761 99223","ARG_OF_PERICENTER":"64.4950","REV_AT_EPOCH":"9922","LAUNCH_DATE":"2020-10-06","MEAN_MOTION":"15.06390761","MEAN_MOTION_DOT":"-0.00000747","CENTER_NAME":"EARTH","DECAY_DATE":null,"OBJECT_NAME":"STARLINK-1697","MEAN_MOTION_DDOT":"0.0000000000000","OBJECT_TYPE":"PAYLOAD","SEMIMAJOR_AXIS":"6925.377","RA_OF_ASC_NODE":"13.0205","REF_FRAME":"TEME","ELEMENT_SET_NO":"999","NORAD_CAT_ID":"46546","ECCENTRICITY":"0.00016860","TIME_SYSTEM":"UTC","GP_ID":"208581993","TLE_LINE1":"1 46546U 20070Q   22202.85250515 -.00000747  00000-0 -31246-4 0  9993","MEAN_ELEMENT_THEORY":"SGP4","PERIAPSIS":"546.074","MEAN_ANOMALY":"295.6214","PERIOD":"95.593","APOAPSIS":"548.409","EPOCH":"2022-07-21T20:27:36.444960","BSTAR":"-0.00003124600000","SITE":"AFETR","COUNTRY_CODE":"US","CLASSIFICATION_TYPE":"U","OBJECT_ID":"2020-070Q","EPHEMERIS_TYPE":"0"},{"PERIOD":"95.593","APOAPSIS":"548.270","PERIAPSIS":"546.274","MEAN_ANOMALY":"285.9585","SITE":"AFETR","BSTAR":"-0.00022908000000","EPOCH":"2022-07-21T19:33:09.946944","EPHEMERIS_TYPE":"0","COUNTRY_CODE":"US","CLASSIFICATION_TYPE":"U","OBJECT_ID":"2020-070R","GP_ID":"208602206","ELEMENT_SET_NO":"999","NORAD_CAT_ID":"46547","ECCENTRICITY":"0.00014410","TIME_SYSTEM":"UTC","TLE_LINE1":"1 46547U 20070R   22202.81469846 -.00003690  00000-0 -22908-3 0  9993","MEAN_ELEMENT_THEORY":"SGP4","CENTER_NAME":"EARTH","DECAY_DATE":null,"LAUNCH_DATE":"2020-10-06","MEAN_MOTION":"15.06381072","MEAN_MOTION_DOT":"-0.00003690","OBJECT_TYPE":"PAYLOAD","OBJECT_NAME":"STARLINK-1698","MEAN_MOTION_DDOT":"0.0000000000000","SEMIMAJOR_AXIS":"6925.407","REF_FRAME":"TEME","RA_OF_ASC_NODE":"13.1820","RCS_SIZE":"LARGE","INCLINATION":"53.0551","TLE_LINE2":"2 46547  53.0551  13.1820 0001441  74.1562 285.9585 15.06381072 99516","FILE":"3519265","ARG_OF_PERICENTER":"74.1562","REV_AT_EPOCH":"9951"},{"EPHEMERIS_TYPE":"0","COUNTRY_CODE":"US","CLASSIFICATION_TYPE":"U","OBJECT_ID":"2020-070S","PERIOD":"95.593","APOAPSIS":"548.240","PERIAPSIS":"546.277","MEAN_ANOMALY":"280.5073","SITE":"AFETR","EPOCH":"2022-07-21T18:14:55.250016","BSTAR":"-0.00018121000000","TLE_LINE1":"1 46548U 20070S   22202.76036169 -.00002978  00000-0 -18121-3 0  9996","MEAN_ELEMENT_THEORY":"SGP4","GP_ID":"208603453","ELEMENT_SET_NO":"999","ECCENTRICITY":"0.00014170","NORAD_CAT_ID":"46548","TIME_SYSTEM":"UTC","SEMIMAJOR_AXIS":"6925.394","RA_OF_ASC_NODE":"13.4392","REF_FRAME":"TEME","CENTER_NAME":"EARTH","DECAY_DATE":null,"MEAN_MOTION":"15.06385287","LAUNCH_DATE":"2020-10-06","MEAN_MOTION_DOT":"-0.00002978","OBJECT_TYPE":"PAYLOAD","OBJECT_NAME":"STARLINK-1699","MEAN_MOTION_DDOT":"0.0000000000000","ARG_OF_PERICENTER":"79.6076","REV_AT_EPOCH":"9950","RCS_SIZE":"LARGE","INCLINATION":"53.0562","TLE_LINE2":"2 46548  53.0562  13.4392 0001417  79.6076 280.5073 15.06385287 99503","FILE":"3519265"},{"ELEMENT_SET_NO":"999","NORAD_CAT_ID":"46549","ECCENTRICITY":"0.00016090","TIME_SYSTEM":"UTC","GP_ID":"208601713","TLE_LINE1":"1 46549U 20070T   22202.85619154 -.00002242  00000-0 -13168-3 0  9998","MEAN_ELEMENT_THEORY":"SGP4","MEAN_ANOMALY":"263.1959","PERIAPSIS":"546.112","APOAPSIS":"548.340","PERIOD":"95.592","EPOCH":"2022-07-21T20:32:54.949056","BSTAR":"-0.00013168000000","SITE":"AFETR","OBJECT_ID":"2020-070T","CLASSIFICATION_TYPE":"U","COUNTRY_CODE":"US","EPHEMERIS_TYPE":"0","INCLINATION":"53.0577","RCS_SIZE":"LARGE","FILE":"3519265","TLE_LINE2":"2 46549  53.0577  13.0119 0001609  96.9213 263.1959 15.06395901 99516","ARG_OF_PERICENTER":"96.9213","REV_AT_EPOCH":"9951","MEAN_MOTION_DOT":"-0.00002242","MEAN_MOTION":"15.06395901","LAUNCH_DATE":"2020-10-06","DECAY_DATE":null,"CENTER_NAME":"EARTH","MEAN_MOTION_DDOT":"0.0000000000000","OBJECT_NAME":"STARLINK-1700","OBJECT_TYPE":"PAYLOAD","REF_FRAME":"TEME","RA_OF_ASC_NODE":"13.0119","SEMIMAJOR_AXIS":"6925.361"}];
